start=new Date('2021-09-04T00:00:00.000Z').valueOf();
sats=[{"MEAN_ELEMENT_THEORY":"SGP4","MEAN_MOTION_DDOT":"0.0000000000000","CENTER_NAME":"EARTH","PERIAPSIS":"545.974","EPHEMERIS_TYPE":"0","PERIOD":"95.592","CLASSIFICATION_TYPE":"U","FILE":"3108332","TLE_LINE2":"2 46140  53.0548 114.6354 0001806  84.6271 275.4924 15.06396465 59506","TLE_LINE1":"1 46140U 20057Z   21246.72427985  .00000870  00000-0  77340-4 0  9998","SITE":"AFETR","TIME_SYSTEM":"UTC","SEMIMAJOR_AXIS":"6925.359","RA_OF_ASC_NODE":"114.6354","RCS_SIZE":"LARGE","MEAN_MOTION":"15.06396465","INCLINATION":"53.0548","APOAPSIS":"548.475","GP_ID":"184050575","DECAY_DATE":null,"REV_AT_EPOCH":"5950","LAUNCH_DATE":"2020-08-18","MEAN_MOTION_DOT":"0.00000870","EPOCH":"2021-09-03T17:22:57.779040","OBJECT_TYPE":"PAYLOAD","COUNTRY_CODE":"US","ARG_OF_PERICENTER":"84.6271","BSTAR":"0.00007734000000","OBJECT_NAME":"STARLINK-1594","ECCENTRICITY":"0.00018060","NORAD_CAT_ID":"46140","REF_FRAME":"TEME","MEAN_ANOMALY":"275.4924","ELEMENT_SET_NO":"999","OBJECT_ID":"2020-057Z"},{"OBJECT_TYPE":"PAYLOAD","COUNTRY_CODE":"US","MEAN_MOTION_DOT":"0.00001010","EPOCH":"2021-09-03T16:51:07.455168","LAUNCH_DATE":"2020-08-18","REV_AT_EPOCH":"5823","GP_ID":"184049325","DECAY_DATE":null,"APOAPSIS":"548.671","OBJECT_ID":"2020-057AA","ELEMENT_SET_NO":"999","MEAN_ANOMALY":"274.3497","ECCENTRICITY":"0.00020790","NORAD_CAT_ID":"46141","REF_FRAME":"TEME","BSTAR":"0.00008669000000","OBJECT_NAME":"STARLINK-1596","ARG_OF_PERICENTER":"85.7729","TLE_LINE1":"1 46141U 20057AA  21246.70216962  .00001010  00000-0  86690-4 0  9993","FILE":"3108332","TLE_LINE2":"2 46141  53.0555 114.7338 0002079  85.7729 274.3497 15.06394253 58236","EPHEMERIS_TYPE":"0","PERIOD":"95.593","CLASSIFICATION_TYPE":"U","MEAN_MOTION_DDOT":"0.0000000000000","PERIAPSIS":"545.791","CENTER_NAME":"EARTH","MEAN_ELEMENT_THEORY":"SGP4","INCLINATION":"53.0555","MEAN_MOTION":"15.06394253","RCS_SIZE":"LARGE","SEMIMAJOR_AXIS":"6925.366","RA_OF_ASC_NODE":"114.7338","TIME_SYSTEM":"UTC","SITE":"AFETR"},{"REF_FRAME":"TEME","ECCENTRICITY":"0.00017700","NORAD_CAT_ID":"46142","MEAN_ANOMALY":"286.7031","ELEMENT_SET_NO":"999","OBJECT_ID":"2020-057AB","ARG_OF_PERICENTER":"73.4153","BSTAR":"0.00015161000000","OBJECT_NAME":"STARLINK-1597","LAUNCH_DATE":"2020-08-18","REV_AT_EPOCH":"5763","EPOCH":"2021-09-03T10:55:27.754176","MEAN_MOTION_DOT":"0.00001978","COUNTRY_CODE":"US","OBJECT_TYPE":"PAYLOAD","APOAPSIS":"548.417","DECAY_DATE":null,"GP_ID":"184049575","RCS_SIZE":"LARGE","MEAN_MOTION":"15.06407219","INCLINATION":"53.0559","SITE":"AFETR","TIME_SYSTEM":"UTC","RA_OF_ASC_NODE":"155.8267","SEMIMAJOR_AXIS":"6925.326","CLASSIFICATION_TYPE":"U","PERIOD":"95.592","EPHEMERIS_TYPE":"0","TLE_LINE2":"2 46142  53.0559 155.8267 0001770  73.4153 286.7031 15.06407219 57631","FILE":"3108332","TLE_LINE1":"1 46142U 20057AB  21246.45518234  .00001978  00000-0  15161-3 0  9990","MEAN_ELEMENT_THEORY":"SGP4","PERIAPSIS":"545.966","CENTER_NAME":"EARTH","MEAN_MOTION_DDOT":"0.0000000000000"},{"TLE_LINE1":"1 46143U 20057AC  21246.68924435 -.00000614  00000-0 -22341-4 0  9997","PERIOD":"95.593","EPHEMERIS_TYPE":"0","CLASSIFICATION_TYPE":"U","TLE_LINE2":"2 46143  53.0545 134.7866 0001683  84.1480 275.9701 15.06393586 57953","FILE":"3108332","CENTER_NAME":"EARTH","PERIAPSIS":"546.068","MEAN_MOTION_DDOT":"0.0000000000000","MEAN_ELEMENT_THEORY":"SGP4","MEAN_MOTION":"15.06393586","INCLINATION":"53.0545","RCS_SIZE":"LARGE","RA_OF_ASC_NODE":"134.7866","SEMIMAJOR_AXIS":"6925.368","SITE":"AFETR","TIME_SYSTEM":"UTC","COUNTRY_CODE":"US","OBJECT_TYPE":"PAYLOAD","LAUNCH_DATE":"2020-08-18","REV_AT_EPOCH":"5795","EPOCH":"2021-09-03T16:32:30.711840","MEAN_MOTION_DOT":"-0.00000614","DECAY_DATE":null,"GP_ID":"184050323","APOAPSIS":"548.399","ELEMENT_SET_NO":"999","OBJECT_ID":"2020-057AC","REF_FRAME":"TEME","NORAD_CAT_ID":"46143","ECCENTRICITY":"0.00016830","MEAN_ANOMALY":"275.9701","BSTAR":"-0.00002234100000","OBJECT_NAME":"STARLINK-1599","ARG_OF_PERICENTER":"84.1480"},{"TIME_SYSTEM":"UTC","SITE":"AFETR","RA_OF_ASC_NODE":"134.8013","SEMIMAJOR_AXIS":"6925.316","RCS_SIZE":"LARGE","INCLINATION":"53.0546","MEAN_MOTION":"15.06410525","MEAN_ELEMENT_THEORY":"SGP4","CENTER_NAME":"EARTH","PERIAPSIS":"545.914","MEAN_MOTION_DDOT":"0.0000000000000","TLE_LINE2":"2 46144  53.0546 134.8013 0001830  59.6855 300.4315 15.06410525 46201","FILE":"3108332","CLASSIFICATION_TYPE":"U","PERIOD":"95.591","EPHEMERIS_TYPE":"0","TLE_LINE1":"1 46144U 20057AD  21246.68555768  .00001698  00000-0  13285-3 0  9994","ARG_OF_PERICENTER":"59.6855","BSTAR":"0.00013285000000","OBJECT_NAME":"STARLINK-1606","MEAN_ANOMALY":"300.4315","REF_FRAME":"TEME","NORAD_CAT_ID":"46144","ECCENTRICITY":"0.00018300","ELEMENT_SET_NO":"999","OBJECT_ID":"2020-057AD","APOAPSIS":"548.449","DECAY_DATE":null,"GP_ID":"184050075","EPOCH":"2021-09-03T16:27:12.183552","MEAN_MOTION_DOT":"0.00001698","REV_AT_EPOCH":"4620","LAUNCH_DATE":"2020-08-18","COUNTRY_CODE":"US","OBJECT_TYPE":"PAYLOAD"},{"REV_AT_EPOCH":"5945","LAUNCH_DATE":"2020-08-18","MEAN_MOTION_DOT":"0.00010977","EPOCH":"2021-09-03T16:16:43.585536","OBJECT_TYPE":"PAYLOAD","COUNTRY_CODE":"US","APOAPSIS":"355.501","GP_ID":"184048825","DECAY_DATE":null,"ECCENTRICITY":"0.00012090","NORAD_CAT_ID":"46145","REF_FRAME":"TEME","MEAN_ANOMALY":"246.9059","OBJECT_ID":"2020-057AE","ELEMENT_SET_NO":"999","ARG_OF_PERICENTER":"113.2085","OBJECT_NAME":"STARLINK-1607","BSTAR":"0.00008867300000","EPHEMERIS_TYPE":"0","PERIOD":"91.634","CLASSIFICATION_TYPE":"U","FILE":"3108332","TLE_LINE2":"2 46145  53.0519 117.8442 0001209 113.2085 246.9059 15.71473577 59459","TLE_LINE1":"1 46145U 20057AE  21246.67828224  .00010977  00000-0  88673-4 0  9998","MEAN_ELEMENT_THEORY":"SGP4","MEAN_MOTION_DDOT":"0.0000000000000","CENTER_NAME":"EARTH","PERIAPSIS":"353.873","RCS_SIZE":"LARGE","MEAN_MOTION":"15.71473577","INCLINATION":"53.0519","SITE":"AFETR","TIME_SYSTEM":"UTC","SEMIMAJOR_AXIS":"6732.822","RA_OF_ASC_NODE":"117.8442"},{"ELEMENT_SET_NO":"999","OBJECT_ID":"2020-057AF","NORAD_CAT_ID":"46146","ECCENTRICITY":"0.00019730","REF_FRAME":"TEME","MEAN_ANOMALY":"290.9169","BSTAR":"0.00018933000000","OBJECT_NAME":"STARLINK-1608","ARG_OF_PERICENTER":"69.2032","OBJECT_TYPE":"PAYLOAD","COUNTRY_CODE":"US","LAUNCH_DATE":"2020-08-18","REV_AT_EPOCH":"5768","MEAN_MOTION_DOT":"0.00002540","EPOCH":"2021-09-03T17:33:33.680448","GP_ID":"184049075","DECAY_DATE":null,"APOAPSIS":"548.565","MEAN_MOTION":"15.06404888","INCLINATION":"53.0546","RCS_SIZE":"LARGE","SEMIMAJOR_AXIS":"6925.334","RA_OF_ASC_NODE":"154.6032","SITE":"AFETR","TIME_SYSTEM":"UTC","TLE_LINE1":"1 46146U 20057AF  21246.73163982  .00002540  00000-0  18933-3 0  9997","PERIOD":"95.592","EPHEMERIS_TYPE":"0","CLASSIFICATION_TYPE":"U","FILE":"3108332","TLE_LINE2":"2 46146  53.0546 154.6032 0001973  69.2032 290.9169 15.06404888 57685","MEAN_MOTION_DDOT":"0.0000000000000","PERIAPSIS":"545.832","CENTER_NAME":"EARTH","MEAN_ELEMENT_THEORY":"SGP4"},{"TIME_SYSTEM":"UTC","SITE":"AFETR","RA_OF_ASC_NODE":"154.6830","SEMIMAJOR_AXIS":"6925.349","RCS_SIZE":"LARGE","INCLINATION":"53.0540","MEAN_MOTION":"15.06399950","MEAN_ELEMENT_THEORY":"SGP4","CENTER_NAME":"EARTH","PERIAPSIS":"545.874","MEAN_MOTION_DDOT":"0.0000000000000","TLE_LINE2":"2 46147  53.0540 154.6830 0001934  63.5030 296.6158 15.06399950 58931","FILE":"3108332","PERIOD":"95.592","EPHEMERIS_TYPE":"0","CLASSIFICATION_TYPE":"U","TLE_LINE1":"1 46147U 20057AG  21246.71320550  .00000075  00000-0  23967-4 0  9997","ARG_OF_PERICENTER":"63.5030","BSTAR":"0.00002396700000","OBJECT_NAME":"STARLINK-1611","MEAN_ANOMALY":"296.6158","REF_FRAME":"TEME","ECCENTRICITY":"0.00019340","NORAD_CAT_ID":"46147","OBJECT_ID":"2020-057AG","ELEMENT_SET_NO":"999","APOAPSIS":"548.553","DECAY_DATE":null,"GP_ID":"184049823","EPOCH":"2021-09-03T17:07:00.955200","MEAN_MOTION_DOT":"0.00000075","REV_AT_EPOCH":"5893","LAUNCH_DATE":"2020-08-18","COUNTRY_CODE":"US","OBJECT_TYPE":"PAYLOAD"},{"MEAN_MOTION_DDOT":"0.0000000000000","CENTER_NAME":"EARTH","PERIAPSIS":"545.986","MEAN_ELEMENT_THEORY":"SGP4","TLE_LINE1":"1 46148U 20057AH  21246.71873259  .00001668  00000-0  13090-3 0  9991","FILE":"3108332","TLE_LINE2":"2 46148  53.0533 134.6516 0001794  73.7632 286.3554 15.06395271 57957","PERIOD":"95.592","EPHEMERIS_TYPE":"0","CLASSIFICATION_TYPE":"U","SEMIMAJOR_AXIS":"6925.363","RA_OF_ASC_NODE":"134.6516","TIME_SYSTEM":"UTC","SITE":"AFETR","INCLINATION":"53.0533","MEAN_MOTION":"15.06395271","RCS_SIZE":"LARGE","GP_ID":"184050576","DECAY_DATE":null,"APOAPSIS":"548.470","OBJECT_TYPE":"PAYLOAD","COUNTRY_CODE":"US","MEAN_MOTION_DOT":"0.00001668","EPOCH":"2021-09-03T17:14:58.495776","REV_AT_EPOCH":"5795","LAUNCH_DATE":"2020-08-18","OBJECT_NAME":"STARLINK-1616","BSTAR":"0.00013090000000","ARG_OF_PERICENTER":"73.7632","OBJECT_ID":"2020-057AH","ELEMENT_SET_NO":"999","MEAN_ANOMALY":"286.3554","ECCENTRICITY":"0.00017940","NORAD_CAT_ID":"46148","REF_FRAME":"TEME"},{"DECAY_DATE":null,"GP_ID":"184049326","APOAPSIS":"548.551","COUNTRY_CODE":"US","OBJECT_TYPE":"PAYLOAD","EPOCH":"2021-09-03T17:36:11.858976","MEAN_MOTION_DOT":"0.00000899","REV_AT_EPOCH":"5923","LAUNCH_DATE":"2020-08-18","BSTAR":"0.00007927000000","OBJECT_NAME":"STARLINK-1620","ARG_OF_PERICENTER":"70.5578","OBJECT_ID":"2020-057AJ","ELEMENT_SET_NO":"999","MEAN_ANOMALY":"289.5615","REF_FRAME":"TEME","ECCENTRICITY":"0.00018900","NORAD_CAT_ID":"46149","PERIAPSIS":"545.934","CENTER_NAME":"EARTH","MEAN_MOTION_DDOT":"0.0000000000000","MEAN_ELEMENT_THEORY":"SGP4","TLE_LINE1":"1 46149U 20057AJ  21246.73347059  .00000899  00000-0  79270-4 0  9996","TLE_LINE2":"2 46149  53.0542 134.5898 0001890  70.5578 289.5615 15.06390540 59231","FILE":"3108332","PERIOD":"95.593","CLASSIFICATION_TYPE":"U","EPHEMERIS_TYPE":"0","RA_OF_ASC_NODE":"134.5898","SEMIMAJOR_AXIS":"6925.378","TIME_SYSTEM":"UTC","SITE":"AFETR","INCLINATION":"53.0542","MEAN_MOTION":"15.06390540","RCS_SIZE":"LARGE"}];
